[{"OBJECT_NAME":"KUIPER-00175","OBJECT_ID":"2025-301C","EPOCH":"2026-03-03T12:00:00.998784","MEAN_MOTION":15.30678615,"ECCENTRICITY":0.0002315,"INCLINATION":51.8752,"RA_OF_ASC_NODE":94.7215,"ARG_OF_PERICENTER":27.4705,"MEAN_ANOMALY":240.5226,"EPHEMERIS_TYPE":0,"CLASSIFICATION_TYPE":"U","NORAD_CAT_ID":67135,"ELEMENT_SET_NO":999,"REV_AT_EPOCH":567,"BSTAR":0.0019567,"MEAN_MOTION_DOT":0.00058978,"MEAN_MOTION_DDOT":0},{"OBJECT_NAME":"KUIPER-00179","OBJECT_ID":"2025-301D","EPOCH":"2026-03-03T12:00:00.998784","MEAN_MOTION":15.17708377,"ECCENTRICITY":0.0002445,"INCLINATION":51.8815,"RA_OF_ASC_NODE":95.628,"ARG_OF_PERICENTER":45.2472,"MEAN_ANOMALY":143.5436,"EPHEMERIS_TYPE":0,"CLASSIFICATION_TYPE":"U","NORAD_CAT_ID":67136,"ELEMENT_SET_NO":999,"REV_AT_EPOCH":568,"BSTAR":0.0015654,"MEAN_MOTION_DOT":0.00031801,"MEAN_MOTION_DDOT":0},{"OBJECT_NAME":"KUIPER-00181","OBJECT_ID":"2025-301E","EPOCH":"2026-03-03T12:00:00.998784","MEAN_MOTION":14.76679225,"ECCENTRICITY":0.0001151,"INCLINATION":51.9006,"RA_OF_ASC_NODE":104.3167,"ARG_OF_PERICENTER":84.9934,"MEAN_ANOMALY":328.4731,"EPHEMERIS_TYPE":0,"CLASSIFICATION_TYPE":"U","NORAD_CAT_ID":67137,"ELEMENT_SET_NO":999,"REV_AT_EPOCH":505,"BSTAR":7.6189e-5,"MEAN_MOTION_DOT":3.23e-6,"MEAN_MOTION_DDOT":0},{"OBJECT_NAME":"KUIPER-00183","OBJECT_ID":"2025-301F","EPOCH":"2026-03-03T12:00:00.998784","MEAN_MOTION":15.32058645,"ECCENTRICITY":0.0014655,"INCLINATION":51.8652,"RA_OF_ASC_NODE":95.7336,"ARG_OF_PERICENTER":29.7364,"MEAN_ANOMALY":47.8059,"EPHEMERIS_TYPE":0,"CLASSIFICATION_TYPE":"U","NORAD_CAT_ID":67138,"ELEMENT_SET_NO":999,"REV_AT_EPOCH":579,"BSTAR":-0.059503,"MEAN_MOTION_DOT":-0.01701711,"MEAN_MOTION_DDOT":0},{"OBJECT_NAME":"KUIPER-00184","OBJECT_ID":"2025-301G","EPOCH":"2026-03-03T11:10:34.912704","MEAN_MOTION":15.37065647,"ECCENTRICITY":0.0012509,"INCLINATION":51.8622,"RA_OF_ASC_NODE":95.7014,"ARG_OF_PERICENTER":28.5049,"MEAN_ANOMALY":331.6619,"EPHEMERIS_TYPE":0,"CLASSIFICATION_TYPE":"U","NORAD_CAT_ID":67139,"ELEMENT_SET_NO":999,"REV_AT_EPOCH":1305,"BSTAR":0.00050725,"MEAN_MOTION_DOT":0.00018382,"MEAN_MOTION_DDOT":0},{"OBJECT_NAME":"KUIPER-00186","OBJECT_ID":"2025-301H","EPOCH":"2026-03-03T12:00:00.998784","MEAN_MOTION":14.79887422,"ECCENTRICITY":9.02e-5,"INCLINATION":51.9004,"RA_OF_ASC_NODE":105.4841,"ARG_OF_PERICENTER":78.7826,"MEAN_ANOMALY":279.5475,"EPHEMERIS_TYPE":0,"CLASSIFICATION_TYPE":"U","NORAD_CAT_ID":67140,"ELEMENT_SET_NO":999,"REV_AT_EPOCH":579,"BSTAR":0.0037567,"MEAN_MOTION_DOT":0.00028508,"MEAN_MOTION_DDOT":0},{"OBJECT_NAME":"KUIPER-00187","OBJECT_ID":"2025-301J","EPOCH":"2026-03-03T10:19:16.088448","MEAN_MOTION":14.79970769,"ECCENTRICITY":7.08e-5,"INCLINATION":51.9024,"RA_OF_ASC_NODE":108.3031,"ARG_OF_PERICENTER":89.0707,"MEAN_ANOMALY":271.0337,"EPHEMERIS_TYPE":0,"CLASSIFICATION_TYPE":"U","NORAD_CAT_ID":67141,"ELEMENT_SET_NO":999,"REV_AT_EPOCH":1259,"BSTAR":0.00064509,"MEAN_MOTION_DOT":4.704e-5,"MEAN_MOTION_DDOT":0},{"OBJECT_NAME":"KUIPER-00188","OBJECT_ID":"2025-301K","EPOCH":"2026-03-03T07:24:52.416864","MEAN_MOTION":15.37764549,"ECCENTRICITY":0.0009974,"INCLINATION":51.8684,"RA_OF_ASC_NODE":96.2037,"ARG_OF_PERICENTER":20.8804,"MEAN_ANOMALY":339.2588,"EPHEMERIS_TYPE":0,"CLASSIFICATION_TYPE":"U","NORAD_CAT_ID":67142,"ELEMENT_SET_NO":999,"REV_AT_EPOCH":1275,"BSTAR":0.0012379,"MEAN_MOTION_DOT":0.00046608,"MEAN_MOTION_DDOT":0},{"OBJECT_NAME":"KUIPER-00191","OBJECT_ID":"2025-301L","EPOCH":"2026-03-03T12:00:00.998784","MEAN_MOTION":14.84463772,"ECCENTRICITY":0.0010374,"INCLINATION":51.8995,"RA_OF_ASC_NODE":100.663,"ARG_OF_PERICENTER":44.4412,"MEAN_ANOMALY":30.6051,"EPHEMERIS_TYPE":0,"CLASSIFICATION_TYPE":"U","NORAD_CAT_ID":67143,"ELEMENT_SET_NO":999,"REV_AT_EPOCH":461,"BSTAR":0.0013781,"MEAN_MOTION_DOT":0.00011513,"MEAN_MOTION_DDOT":0},{"OBJECT_NAME":"KUIPER-00196","OBJECT_ID":"2025-301M","EPOCH":"2026-03-03T11:03:27.108288","MEAN_MOTION":15.38525279,"ECCENTRICITY":0.0003911,"INCLINATION":51.8698,"RA_OF_ASC_NODE":95.0011,"ARG_OF_PERICENTER":1.2466,"MEAN_ANOMALY":358.853,"EPHEMERIS_TYPE":0,"CLASSIFICATION_TYPE":"U","NORAD_CAT_ID":67144,"ELEMENT_SET_NO":999,"REV_AT_EPOCH":1278,"BSTAR":0.00076726,"MEAN_MOTION_DOT":0.0002936,"MEAN_MOTION_DDOT":0},{"OBJECT_NAME":"KUIPER-00204","OBJECT_ID":"2025-301N","EPOCH":"2026-03-03T07:22:08.763168","MEAN_MOTION":15.25931357,"ECCENTRICITY":0.0002842,"INCLINATION":51.884,"RA_OF_ASC_NODE":100.5817,"ARG_OF_PERICENTER":325.7353,"MEAN_ANOMALY":34.3445,"EPHEMERIS_TYPE":0,"CLASSIFICATION_TYPE":"U","NORAD_CAT_ID":67145,"ELEMENT_SET_NO":999,"REV_AT_EPOCH":1280,"BSTAR":0.00085919,"MEAN_MOTION_DOT":0.0002208,"MEAN_MOTION_DDOT":0},{"OBJECT_NAME":"KUIPER-00210","OBJECT_ID":"2025-301P","EPOCH":"2026-03-03T12:00:00.998784","MEAN_MOTION":14.8678969,"ECCENTRICITY":0.0010035,"INCLINATION":51.8979,"RA_OF_ASC_NODE":100.6771,"ARG_OF_PERICENTER":46.7292,"MEAN_ANOMALY":178.1789,"EPHEMERIS_TYPE":0,"CLASSIFICATION_TYPE":"U","NORAD_CAT_ID":67146,"ELEMENT_SET_NO":999,"REV_AT_EPOCH":584,"BSTAR":0.0016816,"MEAN_MOTION_DOT":0.00014939,"MEAN_MOTION_DDOT":0},{"OBJECT_NAME":"KUIPER-00221","OBJECT_ID":"2025-301Q","EPOCH":"2026-03-03T07:53:25.927584","MEAN_MOTION":14.79958922,"ECCENTRICITY":6.6e-5,"INCLINATION":51.9009,"RA_OF_ASC_NODE":108.7344,"ARG_OF_PERICENTER":45.7135,"MEAN_ANOMALY":314.3881,"EPHEMERIS_TYPE":0,"CLASSIFICATION_TYPE":"U","NORAD_CAT_ID":67147,"ELEMENT_SET_NO":999,"REV_AT_EPOCH":1258,"BSTAR":0.0013893,"MEAN_MOTION_DOT":0.00010393,"MEAN_MOTION_DDOT":0},{"OBJECT_NAME":"KUIPER-00232","OBJECT_ID":"2025-301R","EPOCH":"2026-03-03T12:00:00.998784","MEAN_MOTION":15.18833736,"ECCENTRICITY":0.000295,"INCLINATION":51.8824,"RA_OF_ASC_NODE":95.4842,"ARG_OF_PERICENTER":129.2477,"MEAN_ANOMALY":77.9169,"EPHEMERIS_TYPE":0,"CLASSIFICATION_TYPE":"U","NORAD_CAT_ID":67148,"ELEMENT_SET_NO":999,"REV_AT_EPOCH":500,"BSTAR":-0.055036,"MEAN_MOTION_DOT":-0.01063082,"MEAN_MOTION_DDOT":0},{"OBJECT_NAME":"KUIPER-00241","OBJECT_ID":"2025-301S","EPOCH":"2026-03-03T12:00:00.998784","MEAN_MOTION":14.80256476,"ECCENTRICITY":0.0001891,"INCLINATION":51.9016,"RA_OF_ASC_NODE":102.9864,"ARG_OF_PERICENTER":100.1899,"MEAN_ANOMALY":63.2786,"EPHEMERIS_TYPE":0,"CLASSIFICATION_TYPE":"U","NORAD_CAT_ID":67149,"ELEMENT_SET_NO":999,"REV_AT_EPOCH":541,"BSTAR":0.00093894,"MEAN_MOTION_DOT":6.999e-5,"MEAN_MOTION_DDOT":0},{"OBJECT_NAME":"KUIPER-00245","OBJECT_ID":"2025-301T","EPOCH":"2026-03-03T07:49:28.579872","MEAN_MOTION":14.79966199,"ECCENTRICITY":4.44e-5,"INCLINATION":51.9018,"RA_OF_ASC_NODE":111.2666,"ARG_OF_PERICENTER":58.691,"MEAN_ANOMALY":301.4096,"EPHEMERIS_TYPE":0,"CLASSIFICATION_TYPE":"U","NORAD_CAT_ID":67150,"ELEMENT_SET_NO":999,"REV_AT_EPOCH":1254,"BSTAR":0.00067728,"MEAN_MOTION_DOT":4.95e-5,"MEAN_MOTION_DDOT":0},{"OBJECT_NAME":"KUIPER-00246","OBJECT_ID":"2025-301U","EPOCH":"2026-03-03T12:00:00.998784","MEAN_MOTION":15.08323143,"ECCENTRICITY":0.0004919,"INCLINATION":51.8954,"RA_OF_ASC_NODE":96.7714,"ARG_OF_PERICENTER":48.2599,"MEAN_ANOMALY":302.589,"EPHEMERIS_TYPE":0,"CLASSIFICATION_TYPE":"U","NORAD_CAT_ID":67151,"ELEMENT_SET_NO":999,"REV_AT_EPOCH":573,"BSTAR":0.0023133,"MEAN_MOTION_DOT":0.00036235,"MEAN_MOTION_DDOT":0}]
