KUIPER-00175            
1 67135U 25301C   26062.50001156  .00058978  00000+0  19567-2 0  9993
2 67135  51.8752  94.7215 0002315  27.4705 240.5226 15.30678615  5677
KUIPER-00179            
1 67136U 25301D   26062.50001156  .00031801  00000+0  15654-2 0  9993
2 67136  51.8815  95.6280 0002445  45.2472 143.5436 15.17708377  5683
KUIPER-00181            
1 67137U 25301E   26062.50001156  .00000323  00000+0  76189-4 0  9991
2 67137  51.9006 104.3167 0001151  84.9934 328.4731 14.76679225  5051
KUIPER-00183            
1 67138U 25301F   26062.50001156 -.01701711  00000+0 -59503-1 0  9992
2 67138  51.8652  95.7336 0014655  29.7364  47.8059 15.32058645  5792
KUIPER-00184            
1 67139U 25301G   26062.46568186  .00018382  00000+0  50725-3 0  9990
2 67139  51.8622  95.7014 0012509  28.5049 331.6619 15.37065647 13055
KUIPER-00186            
1 67140U 25301H   26062.50001156  .00028508  00000+0  37567-2 0  9995
2 67140  51.9004 105.4841 0000902  78.7826 279.5475 14.79887422  5793
KUIPER-00187            
1 67141U 25301J   26062.43004732  .00004704  00000+0  64509-3 0  9990
2 67141  51.9024 108.3031 0000708  89.0707 271.0337 14.79970769 12593
KUIPER-00188            
1 67142U 25301K   26062.30894001  .00046608  00000+0  12379-2 0  9999
2 67142  51.8684  96.2037 0009974  20.8804 339.2588 15.37764549 12756
KUIPER-00191            
1 67143U 25301L   26062.50001156  .00011513  00000+0  13781-2 0  9998
2 67143  51.8995 100.6630 0010374  44.4412  30.6051 14.84463772  4612
KUIPER-00196            
1 67144U 25301M   26062.46073042  .00029360  00000+0  76726-3 0  9995
2 67144  51.8698  95.0011 0003911   1.2466 358.8530 15.38525279 12787
KUIPER-00204            
1 67145U 25301N   26062.30704587  .00022080  00000+0  85919-3 0  9990
2 67145  51.8840 100.5817 0002842 325.7353  34.3445 15.25931357 12802
KUIPER-00210            
1 67146U 25301P   26062.50001156  .00014939  00000+0  16816-2 0  9998
2 67146  51.8979 100.6771 0010035  46.7292 178.1789 14.86789690  5842
KUIPER-00221            
1 67147U 25301Q   26062.32877231  .00010393  00000+0  13893-2 0  9996
2 67147  51.9009 108.7344 0000660  45.7135 314.3881 14.79958922 12585
KUIPER-00232            
1 67148U 25301R   26062.50001156 -.01063082  00000+0 -55036-1 0  9992
2 67148  51.8824  95.4842 0002950 129.2477  77.9169 15.18833736  5005
KUIPER-00241            
1 67149U 25301S   26062.50001156  .00006999  00000+0  93894-3 0  9990
2 67149  51.9016 102.9864 0001891 100.1899  63.2786 14.80256476  5413
KUIPER-00245            
1 67150U 25301T   26062.32602523  .00004950  00000+0  67728-3 0  9999
2 67150  51.9018 111.2666 0000444  58.6910 301.4096 14.79966199 12545
KUIPER-00246            
1 67151U 25301U   26062.50001156  .00036235  00000+0  23133-2 0  9997
2 67151  51.8954  96.7714 0004919  48.2599 302.5890 15.08323143  5730
